API VERSION: 1.2
API SOURCE: NASA/JPL Horizons API



*******************************************************************************
Ephemeris / API_USER Fri Apr  3 11:28:45 2026 Pasadena, USA      / Horizons
*******************************************************************************
Target body name: Earth (399)                     {source: DE441}
Center body name: Sun (10)                        {source: DE441}
Center-site name: BODY CENTER
*******************************************************************************
Start time      : A.D. 2025-Dec-20 23:30:00.0003 TDB
Stop  time      : A.D. 2025-Dec-22 23:30:00.0003 TDB
Step-size       : 60 minutes
*******************************************************************************
Center geodetic : 0.0, 0.0, 0.0                   {E-lon(deg),Lat(deg),Alt(km)}
Center cylindric: 0.0, 0.0, 0.0                   {E-lon(deg),Dxy(km),Dz(km)}
Center radii    : 695700.0, 695700.0, 695700.0 km {Equator_a, b, pole_c}
Output units    : AU-D
Calendar mode   : Mixed Julian/Gregorian
Output type     : GEOMETRIC cartesian states
Output format   : 3 (position, velocity, LT, range, range-rate)
Reference frame : Ecliptic of J2000.0
*******************************************************************************
            JDTDB,            Calendar Date (TDB),                      X,                      Y,                      Z,                     VX,                     VY,                     VZ,                     LT,                     RG,                     RR,
**************************************************************************************************************************************************************************************************************************************************************************
$$SOE
2461030.479166670, A.D. 2025-Dec-20 23:30:00.0003,  1.750116974042265E-02,  9.836906856055582E-01, -5.629485049556560E-05, -1.748795696078673E-02,  2.401690878698183E-04, -2.162503322904865E-07,  5.682222684483950E-03,  9.838463594782098E-01, -7.095375779939272E-05,
2461030.520833337, A.D. 2025-Dec-21 00:30:00.0003,  1.677250041975549E-02,  9.837004260264891E-01, -5.630394746102929E-05, -1.748816876674587E-02,  2.273710864055907E-04, -2.204005961481779E-07,  5.682205628305549E-03,  9.838434062924657E-01, -7.079914401294958E-05,
2461030.562500003, A.D. 2025-Dec-21 01:30:00.0003,  1.604382248190359E-02,  9.837096331936398E-01, -5.631321692443158E-05, -1.748837058560432E-02,  2.145729083660909E-04, -2.245301582243425E-07,  5.682188609344586E-03,  9.838404595507213E-01, -7.064444531870925E-05,
2461030.604166670, A.D. 2025-Dec-21 02:30:00.0003,  1.531513634300203E-02,  9.837183070998984E-01, -5.632265801445054E-05, -1.748856241708707E-02,  2.017745655990980E-04, -2.286386181367689E-07,  5.682171627621861E-03,  9.838375192565777E-01, -7.048965864678179E-05,
2461030.645833337, A.D. 2025-Dec-21 03:30:00.0003,  1.458644241919647E-02,  9.837264477386496E-01, -5.633226984387672E-05, -1.748874426096116E-02,  1.889760699609144E-04, -2.327255758539221E-07,  5.682154683158917E-03,  9.838345854137653E-01, -7.033478091974140E-05,
2461030.687500003, A.D. 2025-Dec-21 04:30:00.0003,  1.385774112664138E-02,  9.837340551037702E-01, -5.634205150831830E-05, -1.748891611703586E-02,  1.761774333161142E-04, -2.367906317207999E-07,  5.682137775978036E-03,  9.838316580261418E-01, -7.017980905274906E-05,
2461030.729166670, A.D. 2025-Dec-21 05:30:00.0003,  1.312903288149833E-02,  9.837411291896324E-01, -5.635200208674887E-05, -1.748907798516279E-02,  1.633786675372946E-04, -2.408333864858720E-07,  5.682120906102242E-03,  9.838287370976946E-01, -7.002473995366794E-05,
2461030.770833337, A.D. 2025-Dec-21 06:30:00.0003,  1.240031809993413E-02,  9.837476699911031E-01, -5.636212064190593E-05, -1.748922986523612E-02,  1.505797845048213E-04, -2.448534413268647E-07,  5.682104073555311E-03,  9.838258226325393E-01, -6.986957052318683E-05,
2461030.812500003, A.D. 2025-Dec-21 07:30:00.0003,  1.167159719811918E-02,  9.837536775035444E-01, -5.637240621949397E-05, -1.748937175719267E-02,  1.377807961065746E-04, -2.488503978775546E-07,  5.682087278361761E-03,  9.838229146349209E-01, -6.971429765494071E-05,
2461030.854166670, A.D. 2025-Dec-21 08:30:00.0003,  1.094287059222557E-02,  9.837591517228138E-01, -5.638285784873236E-05, -1.748950366101211E-02,  1.249817142376934E-04, -2.528238582542913E-07,  5.682070520546854E-03,  9.838200131092145E-01, -6.955891823563263E-05,
2461030.895833337, A.D. 2025-Dec-21 09:30:00.0003,  1.021413869842534E-02,  9.837640926452647E-01, -5.639347454240511E-05, -1.748962557671710E-02,  1.121825508003173E-04, -2.567734250826394E-07,  5.682053800136607E-03,  9.838171180599246E-01, -6.940342914515724E-05,
2461030.937500003, A.D. 2025-Dec-21 10:30:00.0003,  9.485401932888724E-03,  9.837685002677464E-01, -5.640425529686091E-05, -1.748973750437343E-02,  9.938331770332832E-05, -2.606987015238680E-07,  5.682037117157794E-03,  9.838142294916857E-01, -6.924782725672450E-05,
2461030.979166670, A.D. 2025-Dec-21 11:30:00.0003,  8.756660711782292E-03,  9.837723745876046E-01, -5.641519909131584E-05, -1.748983944409018E-02,  8.658402686209001E-05, -2.645992913020462E-07,  5.682020471637930E-03,  9.838113474092631E-01, -6.909210943698434E-05,
2461031.020833337, A.D. 2025-Dec-21 12:30:00.0003,  8.027915451267159E-03,  9.837757156026818E-01, -5.642630488939731E-05, -1.748993139601985E-02,  7.378469019818536E-05, -2.684747987304004E-07,  5.682003863605295E-03,  9.838084718175530E-01, -6.893627254615132E-05,
2461031.062500003, A.D. 2025-Dec-21 13:30:00.0003,  7.299166567497197E-03,  9.837785233113170E-01, -5.643757163745074E-05, -1.749001336035849E-02,  6.098531963915493E-05, -2.723248287386382E-07,  5.681987293088917E-03,  9.838056027215820E-01, -6.878031343813066E-05,
2461031.104166670, A.D. 2025-Dec-21 14:30:00.0003,  6.570414476617186E-03,  9.837807977123466E-01, -5.644899826573484E-05, -1.749008533734589E-02,  4.818592711823172E-05, -2.761489868994395E-07,  5.681970760118592E-03,  9.838027401265079E-01, -6.862422896064428E-05,
2461031.145833337, A.D. 2025-Dec-21 15:30:00.0003,  5.841659594761000E-03,  9.837825388051041E-01, -5.646058368812275E-05, -1.749014732726567E-02,  3.538652457407574E-05, -2.799468794555303E-07,  5.681954264724866E-03,  9.837998840376202E-01, -6.846801595535816E-05,
2461031.187500003, A.D. 2025-Dec-21 16:30:00.0003,  5.112902338049789E-03,  9.837837465894212E-01, -5.647232680220173E-05, -1.749019933044543E-02,  2.258712395050829E-05, -2.837181133468915E-07,  5.681937806939051E-03,  9.837970344603406E-01, -6.831167125800863E-05,
2461031.229166670, A.D. 2025-Dec-21 17:30:00.0003,  4.384143122590131E-03,  9.837844210656261E-01, -5.648422648862564E-05, -1.749024134725689E-02,  9.787737196243484E-06, -2.874622962373976E-07,  5.681921386793217E-03,  9.837941914002218E-01, -6.815519169853110E-05,
2461031.270833337, A.D. 2025-Dec-21 18:30:00.0003,  3.655382364472185E-03,  9.837845622345462E-01, -5.649628161226045E-05, -1.749027337811603E-02, -3.011623735379944E-06, -2.911790365421543E-07,  5.681905004320202E-03,  9.837913548629498E-01, -6.799857410118735E-05,
2461031.312500003, A.D. 2025-Dec-21 19:30:00.0003,  2.926620479767866E-03,  9.837841700975063E-01, -5.650849102173602E-05, -1.749029542348319E-02, -1.581094688666841E-05, -2.948679434543105E-07,  5.681888659553609E-03,  9.837885248543415E-01, -6.784181528469458E-05,
2461031.354166670, A.D. 2025-Dec-21 20:30:00.0003,  2.197857884528981E-03,  9.837832446563296E-01, -5.652085354899783E-05, -1.749030748386323E-02, -2.861022029584371E-05, -2.985286269725087E-07,  5.681872352527800E-03,  9.837857013803479E-01, -6.768491206235362E-05,
2461031.395833337, A.D. 2025-Dec-21 21:30:00.0003,  1.469094994785365E-03,  9.837817859133389E-01, -5.653336801000429E-05, -1.749030955980562E-02, -4.140943199731545E-05, -3.021606979276373E-07,  5.681856083277917E-03,  9.837828844470532E-01, -6.752786124217884E-05,
2461031.437500003, A.D. 2025-Dec-21 22:30:00.0003,  7.403322265430253E-04,  9.837797938713534E-01, -5.654603320432826E-05, -1.749030165190463E-02, -5.420857002195204E-05, -3.057637680103201E-07,  5.681839851839857E-03,  9.837800740606724E-01, -6.737065962702635E-05,
2461031.479166670, A.D. 2025-Dec-21 23:30:00.0003,  1.156999578228249E-05,  9.837772685336931E-01, -5.655884791580451E-05, -1.749028376079936E-02, -6.700762239735474E-05, -3.093374497978995E-07,  5.681823658250297E-03,  9.837772702275560E-01, -6.721330401472435E-05,
2461031.520833337, A.D. 2025-Dec-22 00:30:00.0003, -7.171912815441203E-04,  9.837742099041761E-01, -5.657181091163326E-05, -1.749025588717393E-02, -7.980657714813180E-05, -3.128813567815291E-07,  5.681807502546678E-03,  9.837744729541877E-01, -6.705579119820301E-05,
2461031.562500003, A.D. 2025-Dec-22 01:30:00.0003, -1.445951189512872E-03,  9.837706179871195E-01, -5.658492094322687E-05, -1.749021803175759E-02, -9.260542229617202E-05, -3.163951033937186E-07,  5.681791384767224E-03,  9.837716822471843E-01, -6.689811796562354E-05,
2461031.604166670, A.D. 2025-Dec-22 02:30:00.0003, -2.174709312232000E-03,  9.837664927873402E-01, -5.659817674606036E-05, -1.749017019532482E-02, -1.054041458609214E-04, -3.198783050351694E-07,  5.681775304950920E-03,  9.837688981132968E-01, -6.674028110050920E-05,
2461031.645833337, A.D. 2025-Dec-22 03:30:00.0003, -2.903465233842747E-03,  9.837618343101531E-01, -5.661157703912363E-05, -1.749011237869542E-02, -1.182027358596586E-04, -3.233305781022735E-07,  5.681759263137530E-03,  9.837661205594103E-01, -6.658227738187479E-05,
2461031.687500003, A.D. 2025-Dec-22 04:30:00.0003, -3.632218538521444E-03,  9.837566425613733E-01, -5.662512052601713E-05, -1.749004458273470E-02, -1.310011803077716E-04, -3.267515400141891E-07,  5.681743259367597E-03,  9.837633495925439E-01, -6.642410358435745E-05,
